OBJECT_NAME,OBJECT_ID,EPOCH,MEAN_MOTION,ECCENTRICITY,INCLINATION,RA_OF_ASC_NODE,ARG_OF_PERICENTER,MEAN_ANOMALY,EPHEMERIS_TYPE,CLASSIFICATION_TYPE,NORAD_CAT_ID,ELEMENT_SET_NO,REV_AT_EPOCH,BSTAR,MEAN_MOTION_DOT,MEAN_MOTION_DDOT
PROBA-1,2001-049B,2026-07-03T15:56:16.448928,15.07566074,.00564762,97.9593,193.7726,67.8438,292.8769,0,U,26958,999,34610,.90190768E-4,.135E-4,0
CUTE-1 (CO-55),2003-031E,2026-07-02T20:13:49.342944,14.24345535,.0010444,98.6736,192.2049,134.8646,225.3383,0,U,27844,999,19390,.16429785E-3,.336E-5,0
CUBESAT XI-IV (CO-57),2003-031J,2026-07-02T18:27:18.924192,14.23629228,.00099897,98.6769,191.8320,152.4134,207.7577,0,U,27848,999,19359,.14165898E-3,.279E-5,0
APRIZESAT 4,2009-041D,2026-07-02T03:49:28.984800,14.83899214,.00418866,98.1409,258.7781,273.0980,86.5440,0,U,35684,999,91358,.97714435E-4,.764E-5,0
APRIZESAT 3,2009-041F,2026-07-02T16:20:00.184416,14.96282760,.00619158,98.2079,337.6483,16.9430,343.3839,0,U,35686,999,91869,.1081956E-3,.1201E-4,0
PROBA-2,2009-059B,2026-07-02T18:48:34.007616,14.54869294,.00122345,98.2454,6.9205,228.9186,131.0955,0,U,36037,999,88379,.62056498E-4,.221E-5,0
APRIZESAT 5,2011-044E,2026-07-02T13:05:42.393120,14.81108748,.0051161,98.2450,117.0216,314.4674,45.2359,0,U,37792,999,80106,.15796E-3,.1194E-4,0
APRIZESAT 6,2011-044F,2026-07-02T17:19:23.113920,14.76941007,.00439898,98.2350,94.5379,37.6901,344.9611,0,U,37793,999,79944,.14530928E-3,.982E-5,0
PROBA-V,2013-021A,2026-07-02T20:42:36.285408,14.23601105,.00054327,98.3594,161.6963,87.7183,272.4619,0,U,39159,999,68334,.7765691E-4,.136E-5,0
APRIZESAT 7,2013-066A,2026-07-03T07:42:46.894176,14.91598101,.00364409,97.7717,137.3101,155.5206,204.7753,0,U,39416,999,68363,.10862313E-3,.1046E-4,0
APRIZESAT 8,2013-066K,2026-07-02T19:31:01.756992,14.87680376,.00446055,97.8225,131.0638,233.4143,126.2966,0,U,39425,999,68199,.11656076E-3,.1023E-4,0
BUGSAT-1 (TITA),2014-033E,2026-07-03T16:09:05.508288,15.15776157,.0028892,98.0434,278.1882,123.3697,237.0305,0,U,40014,999,65833,.3996592E-3,.7634E-4,0
SAUDISAT 4,2014-033G,2026-07-02T16:09:53.296128,14.79564269,.00453071,97.7603,329.2740,24.7460,335.5912,0,U,40016,999,64836,.97670218E-4,.691E-5,0
APRIZESAT 9,2014-033J,2026-07-02T19:38:46.852512,14.74238561,.00668721,97.9081,316.6366,149.0591,211.4585,0,U,40018,999,64586,.14437121E-3,.936E-5,0
APRIZESAT 10,2014-033K,2026-07-02T20:10:59.052000,14.70899232,.00778389,97.9670,310.4529,223.0623,136.4478,0,U,40019,999,64455,.12005298E-3,.716E-5,0
TECHDEMOSAT-1 (TDS-1),2014-037H,2026-07-02T16:42:21.278304,15.13527171,.00056326,98.3815,177.4486,199.5033,160.5982,0,U,40076,999,65057,.49136252E-3,.8733E-4,0
TECHNOSAT,2017-042E,2026-07-02T16:10:51.770784,15.05047398,.00185788,97.4294,340.7445,44.9209,315.3517,0,U,42829,999,48903,.21541223E-3,.3012E-4,0
FLYING LAPTOP,2017-042G,2026-07-03T15:35:08.547936,15.01251005,.00199668,97.4764,339.5560,69.1699,291.1662,0,U,42831,999,48892,.23720779E-3,.3002E-4,0
HAWK-A,2018-099H,2026-07-02T13:46:10.305696,15.24825216,.0033542,97.3901,235.6097,229.1034,130.7297,0,U,43765,999,41544,.29894E-3,.7466E-4,0
HAWK-B,2018-099AN,2026-07-02T14:43:40.370016,15.22992160,.0030413,97.3948,235.0320,247.8388,111.9620,0,U,43794,999,41538,.29392794E-3,.6927E-4,0
HAWK-C,2018-099AT,2026-07-02T13:56:19.449888,15.28320860,.0039169,97.3878,236.6053,229.0602,130.7245,0,U,43799,999,41626,.30026E-3,.8396E-4,0
SALSAT,2020-068K,2026-07-02T06:06:00.402048,15.30013367,.0008038,97.8847,187.2381,243.7769,116.2645,0,U,46495,999,31766,.29987E-3,.8637E-4,0
HAWK-2C,2021-006CT,2026-07-02T12:56:42.201312,15.34851524,.0008195,97.2264,227.5437,137.0400,223.1485,0,U,47502,999,30185,.22364E-3,.7487E-4,0
HAWK-2A,2021-006CW,2026-07-02T00:29:02.103936,15.34859675,.00076073,97.2308,227.7213,141.4283,218.7506,0,U,47505,999,30177,.23444889E-3,.7854E-4,0
HAWK-2B,2021-006CZ,2026-07-02T15:59:58.106400,15.34981442,.00082625,97.2174,226.6622,138.1480,222.0397,0,U,47508,999,30187,.24865396E-3,.8369E-4,0
HAWK-3B,2021-059BE,2026-07-02T11:48:04.049856,15.70861042,.0003426,97.6639,21.6610,250.4226,109.6666,0,U,48931,999,28025,.3698E-3,.4604E-3,0
HAWK-3C,2021-059BX,2026-07-02T19:26:15.335808,15.70882605,.0003653,97.6760,27.7223,251.9910,108.0954,0,U,48948,999,28030,.35597805E-3,.44347E-3,0
HAWK-3A,2021-059CG,2026-07-02T19:26:05.179488,15.70880723,.00036398,97.6708,24.9142,253.4708,106.6154,0,U,48957,999,28030,.35336664E-3,.44015E-3,0
HAWK-5C,2022-057Y,2026-07-02T17:09:43.644672,15.51943221,.00039125,97.6614,344.3901,31.2505,328.8979,0,U,52754,999,22875,.32022168E-3,.19146E-3,0
HAWK-5B,2022-057AA,2026-07-02T17:09:28.257696,15.51945572,.00045167,97.6626,342.7407,21.3656,338.7783,0,U,52756,999,22875,.32150548E-3,.19227E-3,0
